<?xml version="1.0" encoding="utf-8" standalone="yes"?>
<gpx version="1.1" creator="locationjoystick" xmlns="http://www.topografix.com/GPX/1/1" xmlns:xsi="http://www.w3.org/2001/XMLSchema-instance" xsi:schemaLocation="http://www.topografix.com/GPX/1/1 http://www.topografix.com/GPX/1/1/gpx.xsd">
<wpt lat="35.6671448" lon="139.7574141"></wpt>
<wpt lat="35.6669716" lon="139.7454765"></wpt>
<wpt lat="35.665661" lon="139.7461202"></wpt>
<wpt lat="35.6586" lon="139.7454"></wpt>
<wpt lat="35.6560133" lon="139.7490935"></wpt>
</gpx>
